INTELSAT 23 (IS-23)     
1 38867U 12057A   26194.55300409 -.00000289  00000+0  00000+0 0  9993
2 38867   0.0157  24.1372 0000330 170.2032 243.1730  1.00273921 50210
FM-6                    
1 39360U 13058A   26194.60924014 -.00000019  00000+0  00000+0 0  9995
2 39360   0.0138  31.1834 0001230 152.2695 210.9965  1.00267432 46334
INTELSAT 30 (IS-30)     
1 40271U 14062A   26193.82918095 -.00000152  00000+0  00000+0 0  9997
2 40271   0.0165  46.9734 0001199 336.3929 110.8103  1.00273200  7057
DIRECTV 14              
1 40333U 14078B   26194.61262015 -.00000129  00000+0  00000+0 0  9999
2 40333   0.0137  46.4346 0000472 282.3115  84.0369  1.00270302 42302
DIRECTV 15              
1 40663U 15026A   26194.51503031 -.00000106  00000+0  00000+0 0  9999
2 40663   0.0179  71.5022 0000065 256.9146  45.5133  1.00272384 40720
SKY MEXICO-1            
1 40664U 15026B   26194.54543395 -.00000238  00000+0  00000+0 0  9996
2 40664   0.0185  24.1423 0002323 111.3004 273.5319  1.00270449 40711
INTELSAT 34 (IS-34)     
1 40874U 15039A   26194.10409780 -.00000287  00000+0  00000+0 0  9998
2 40874   0.0107   1.3438 0000492 353.9217 277.7081  1.00271511 39896
INTELSAT 31 (IS-31)     
1 41581U 16035A   26194.18574118 -.00000153  00000+0  00000+0 0  9999
2 41581   0.0160 289.2103 0001139 354.6494 339.0259  1.00271434 36947
INTELSAT 36 (IS-36)     
1 41747U 16053A   26194.57453458 -.00000028  00000+0  00000+0 0  9990
2 41747   0.0103  21.6142 0002497 318.9574 226.1919  1.00270088 36223
INTELSAT 32E (IS-32E)   
1 41945U 17007B   26194.12470718  .00000000  00000+0  00000+0 0  9998
2 41945   0.0250  44.8942 0000425 284.8742 322.9651  1.00269412 34481
INTELSAT 35E (IS-35E)   
1 42818U 17041A   26193.91256185 -.00000239  00000+0  00000+0 0  9997
2 42818   0.0167  45.3733 0001581  65.1012 114.3450  1.00269769 33075
INTELSAT 37E (IS-37E)   
1 42950U 17059A   26194.03377860 -.00000143  00000+0  00000+0 0  9995
2 42950   0.0156  71.5028 0002484  47.5543 166.0149  1.00270449 32327
AZERSPACE 2 (IS-38)     
1 43632U 18074A   26194.56996072  .00000000  00000+0  00000+0 0  9992
2 43632   0.0260  45.1410 0001232  77.1604  59.4493  1.00269825 28711
HORIZONS-3E             
1 43633U 18074B   26194.60253332 -.00000035  00000+0  00000+0 0  9992
2 43633   0.0494 224.7986 0000927  51.6588  40.9268  1.00269669 28601
AT&T T-16               
1 44333U 19034A   26194.61236015 -.00000119  00000+0  00000+0 0  9990
2 44333   0.0140  58.9852 0000627 257.7534  94.3352  1.00268393 25891
INTELSAT 39 (IS-39)     
1 44476U 19049B   26194.50202552  .00000000  00000+0  00000+0 0  9999
2 44476   0.0272  48.3641 0000931 279.4001 206.2973  1.00269592 25392
GALAXY 30 (G-30)        
1 46114U 20056C   26194.60750679  .00000033  00000+0  00000+0 0  9995
2 46114   0.0172  37.7023 0001949  77.0986 270.3739  1.00271279 21553
GALAXY 33 (G-33)        
1 54026U 22128A   26194.60594678  .00000075  00000+0  00000+0 0  9999
2 54026   0.0131  21.0448 0001753  99.1957 256.3775  1.00271597 14001
GALAXY 34 (G-34)        
1 54027U 22128B   26194.53546722  .00000000  00000+0  00000+0 0  9997
2 54027   0.0254  27.9681 0001283 107.0516 220.1611  1.00270740 14175
GALAXY 31 (G-31)        
1 54243U 22153A   26194.60837346  .00000009  00000+0  00000+0 0  9997
2 54243   0.0171  66.0837 0000944  53.9617 269.4339  1.00270713  7393
GALAXY 32 (G-32)        
1 54244U 22153B   26194.50947838 -.00000178  00000+0  00000+0 0  9993
2 54244   0.0121  29.6563 0001400  18.1075 336.0269  1.00269974 13408
GALAXY 35 (G-35)        
1 54741U 22170A   26194.54240059  .00000000  00000+0  00000+0 0  9992
2 54741   0.0255  65.2301 0001902  51.8228 276.5266  1.00268649 13150
GALAXY 36 (G-36)        
1 54742U 22170B   26194.61470016 -.00000189  00000+0  00000+0 0  9998
2 54742   0.0040 258.9339 0002352 201.0850 323.7604  1.00270311 13032
GALAXY 37 (G-37)        
1 57493U 23112A   26194.60716013  .00000044  00000+0  00000+0 0  9999
2 57493   0.0209  72.2234 0001736  45.1732 265.6549  1.00271208 10807
