OBJECT_NAME,OBJECT_ID,EPOCH,MEAN_MOTION,ECCENTRICITY,INCLINATION,RA_OF_ASC_NODE,ARG_OF_PERICENTER,MEAN_ANOMALY,EPHEMERIS_TYPE,CLASSIFICATION_TYPE,NORAD_CAT_ID,ELEMENT_SET_NO,REV_AT_EPOCH,BSTAR,MEAN_MOTION_DOT,MEAN_MOTION_DDOT
INTELSAT 23 (IS-23),2012-057A,2026-07-13T13:16:19.553376,1.00273921,.00003306,0.0157,24.1372,170.2032,243.1730,0,U,38867,999,5021,0,-.289E-5,0
FM-6,2013-058A,2026-07-13T14:37:18.348096,1.00267432,.00012301,0.0138,31.1834,152.2695,210.9965,0,U,39360,999,4633,0,-.19E-6,0
INTELSAT 30 (IS-30),2014-062A,2026-07-12T19:54:01.234080,1.00273200,.00011997,0.0165,46.9734,336.3929,110.8103,0,U,40271,999,705,0,-.152E-5,0
DIRECTV 14,2014-078B,2026-07-13T14:42:10.380960,1.00270302,.0000472,0.0137,46.4346,282.3115,84.0369,0,U,40333,999,4230,0,-.129E-5,0
DIRECTV 15,2015-026A,2026-07-13T12:21:38.618784,1.00272384,.00000657,0.0179,71.5022,256.9146,45.5133,0,U,40663,999,4072,0,-.106E-5,0
SKY MEXICO-1,2015-026B,2026-07-13T13:05:25.493280,1.00270449,.00023233,0.0185,24.1423,111.3004,273.5319,0,U,40664,999,4071,0,-.238E-5,0
INTELSAT 34 (IS-34),2015-039A,2026-07-13T02:29:54.049920,1.00271511,.0000492,0.0107,1.3438,353.9217,277.7081,0,U,40874,999,3989,0,-.287E-5,0
INTELSAT 31 (IS-31),2016-035A,2026-07-13T04:27:28.037952,1.00271434,.0001139,0.0160,289.2103,354.6494,339.0259,0,U,41581,999,3694,0,-.153E-5,0
INTELSAT 36 (IS-36),2016-053A,2026-07-13T13:47:19.787712,1.00270088,.00024974,0.0103,21.6142,318.9574,226.1919,0,U,41747,999,3622,0,-.28E-6,0
INTELSAT 32E (IS-32E),2017-007B,2026-07-13T02:59:34.700352,1.00269412,.00004255,0.0250,44.8942,284.8742,322.9651,0,U,41945,999,3448,0,0,0
INTELSAT 35E (IS-35E),2017-041A,2026-07-12T21:54:05.343840,1.00269769,.00015813,0.0167,45.3733,65.1012,114.3450,0,U,42818,999,3307,0,-.239E-5,0
INTELSAT 37E (IS-37E),2017-059A,2026-07-13T00:48:38.471040,1.00270449,.00024848,0.0156,71.5028,47.5543,166.0149,0,U,42950,999,3232,0,-.143E-5,0
AZERSPACE 2 (IS-38),2018-074A,2026-07-13T13:40:44.606208,1.00269825,.00012327,0.0260,45.1410,77.1604,59.4493,0,U,43632,999,2871,0,0,0
HORIZONS-3E,2018-074B,2026-07-13T14:27:38.878848,1.00269669,.00009274,0.0494,224.7986,51.6588,40.9268,0,U,43633,999,2860,0,-.35E-6,0
AT&T T-16,2019-034A,2026-07-13T14:41:47.916960,1.00268393,.00006279,0.0140,58.9852,257.7534,94.3352,0,U,44333,999,2589,0,-.119E-5,0
INTELSAT 39 (IS-39),2019-049B,2026-07-13T12:02:55.004928,1.00269592,.00009312,0.0272,48.3641,279.4001,206.2973,0,U,44476,999,2539,0,0,0
GALAXY 30 (G-30),2020-056C,2026-07-13T14:34:48.586656,1.00271279,.00019492,0.0172,37.7023,77.0986,270.3739,0,U,46114,999,2155,0,.33E-6,0
GALAXY 33 (G-33),2022-128A,2026-07-13T14:32:33.801792,1.00271597,.00017533,0.0131,21.0448,99.1957,256.3775,0,U,54026,999,1400,0,.75E-6,0
GALAXY 34 (G-34),2022-128B,2026-07-13T12:51:04.367808,1.00270740,.00012837,0.0254,27.9681,107.0516,220.1611,0,U,54027,999,1417,0,0,0
GALAXY 31 (G-31),2022-153A,2026-07-13T14:36:03.466944,1.00270713,.00009442,0.0171,66.0837,53.9617,269.4339,0,U,54243,999,739,0,.9E-7,0
GALAXY 32 (G-32),2022-153B,2026-07-13T12:13:38.932032,1.00269974,.00014004,0.0121,29.6563,18.1075,336.0269,0,U,54244,999,1340,0,-.178E-5,0
GALAXY 35 (G-35),2022-170A,2026-07-13T13:01:03.410976,1.00268649,.00019026,0.0255,65.2301,51.8228,276.5266,0,U,54741,999,1315,0,0,0
GALAXY 36 (G-36),2022-170B,2026-07-13T14:45:10.093824,1.00270311,.00023527,0.0040,258.9339,201.0850,323.7604,0,U,54742,999,1303,0,-.189E-5,0
GALAXY 37 (G-37),2023-112A,2026-07-13T14:34:18.635232,1.00271208,.00017361,0.0209,72.2234,45.1732,265.6549,0,U,57493,999,1080,0,.44E-6,0
